EUTELSAT 21B            
1 38992U 12062B   25364.61325968  .00000149  00000+0  00000+0 0  9994
2 38992   0.0647   1.9964 0003215 284.5769  55.0914  1.00273585 48132
EUTELSAT 70B            
1 39020U 12069A   25364.62296640 -.00000025  00000+0  00000+0 0  9993
2 39020   0.0604   0.7020 0003974 259.4005 133.9584  1.00271257 47811
EUTELSAT 117 WEST A     
1 39122U 13012A   25364.58578617  .00000006  00000+0  00000+0 0  9995
2 39122   0.0106   3.1700 0003077 280.4004 269.7746  1.00271033 46741
EUTELSAT 7B             
1 39163U 13022A   25364.61039966  .00000067  00000+0  00000+0 0  9991
2 39163   0.0678 344.1750 0004871 336.5864   5.2835  1.00272763 46252
EXPRESS-AT1             
1 39612U 14010A   25364.69143351  .00000097  00000+0  00000+0 0  9993
2 39612   0.0134 313.4410 0000389 228.3442 222.5030  1.00269632 43125
EXPRESS-AT2             
1 39613U 14010B   25364.63665981 -.00000262  00000+0  00000+0 0  9991
2 39613   0.0122 312.0079 0001696 327.5327 188.8308  1.00271441 42813
EUTELSAT 3B             
1 39773U 14030A   25364.60961965  .00000038  00000+0  00000+0 0  9998
2 39773   0.0599   2.7452 0004327 237.2821  81.8100  1.00270871 42375
EUTELSAT 115 WEST B     
1 40425U 15010B   25364.58621950 -.00000006  00000+0  00000+0 0  9993
2 40425   0.0079 147.9192 0000315 305.2630 102.2200  1.00272387 39700
